"S 2006 S 3" "Sol/Saturn"
{
	Class	"minormoon"
	Mesh	"asteroid.cms"
	Texture	"asteroid.*"
	Radius	2.5
	OrbitFrame
	{
		EclipticJ2000	{ Center "Sol/Saturn" }
	}
	EllipticalOrbit
	{
		Epoch	2453167.5  # 2004 Jun 11
		Period	1159.729247
		SemiMajorAxis	21287559.434
		Eccentricity	0.457229
		Inclination	151.678522
		AscendingNode	215.704182
		ArgOfPericenter	192.998919
		MeanAnomaly	263.763123
	}
	UniformRotation
	{
		Period	10
	}
	LunarLambert	0.5
	GeomAlbedo	0.04
	InfoURL	"https://en.wikipedia.org/wiki/S/2006_S_3"
}

"Saturn LXV:S 2004 S 35" "Sol/Saturn"
{
	Class	"minormoon"
	Mesh	"asteroid.cms"
	Texture	"asteroid.*"
	Radius	2
	OrbitFrame
	{
		EclipticJ2000	{ Center "Sol/Saturn" }
	}
	EllipticalOrbit
	{
		Epoch	2453167.5  # 2004 Jun 11
		Period	1181.282918
		SemiMajorAxis	21550503.250
		Eccentricity	0.224188
		Inclination	176.190616
		AscendingNode	326.642943
		ArgOfPericenter	184.145452
		MeanAnomaly	84.775784
	}
	UniformRotation
	{
		Period	10
	}
	LunarLambert	0.5
	GeomAlbedo	0.04
	InfoURL	"https://en.wikipedia.org/wiki/S/2004_S_35"
}

"Kari:Saturn XLV:S 2006 S 2" "Sol/Saturn"
{
	Class	"minormoon"
	Mesh	"roughsphere.cms"
	Texture	"asteroid.*"
	SemiAxes	[ 4 2.5 2.5 ]
	OrbitFrame
	{
		EclipticJ2000	{ Center "Sol/Saturn" }
	}
	EllipticalOrbit
	{
		Epoch	2453167.5  # 2004 Jun 11
		Period	1182.006394
		SemiMajorAxis	21559301.411
		Eccentricity	0.365107
		Inclination	149.260763
		AscendingNode	290.330552
		ArgOfPericenter	163.021001
		MeanAnomaly	51.313757
	}
	UniformRotation
	{
		Period	7.7
	}
	LunarLambert	0.5
	GeomAlbedo	0.04
	InfoURL	"https://en.wikipedia.org/wiki/Kari_(moon)"
}

"Saturn LVI:S 2004 S 23" "Sol/Saturn"
{
	Class	"minormoon"
	Mesh	"asteroid.cms"
	Texture	"asteroid.*"
	Radius	2
	OrbitFrame
	{
		EclipticJ2000	{ Center "Sol/Saturn" }
	}
	EllipticalOrbit
	{
		Epoch	2453167.5  # 2004 Jun 11
		Period	1231.137935
		SemiMajorAxis	22152663.097
		Eccentricity	0.332589
		Inclination	177.909968
		AscendingNode	202.990894
		ArgOfPericenter	107.705348
		MeanAnomaly	179.173126
	}
	UniformRotation
	{
		Period	10
	}
	LunarLambert	0.5
	GeomAlbedo	0.04
	InfoURL	"https://en.wikipedia.org/wiki/S/2004_S_23"
}

"S 2004 S 28" "Sol/Saturn"
{
	Class	"minormoon"
	Mesh	"asteroid.cms"
	Texture	"asteroid.*"
	Radius	2
	OrbitFrame
	{
		EclipticJ2000	{ Center "Sol/Saturn" }
	}
	EllipticalOrbit
	{
		Epoch	2453167.5  # 2004 Jun 11
		Period	1238.650772
		SemiMajorAxis	22242693.912
		Eccentricity	0.103667
		Inclination	170.895723
		AscendingNode	136.257954
		ArgOfPericenter	208.515678
		MeanAnomaly	204.290951
	}
	UniformRotation
	{
		Period	10
	}
	LunarLambert	0.5
	GeomAlbedo	0.04
	InfoURL	"https://en.wikipedia.org/wiki/S/2004_S_28"
}

"Fenrir:Saturn XLI:S 2004 S 16" "Sol/Saturn"
{
	Class	"minormoon"
	Mesh	"asteroid.cms"
	Texture	"asteroid.*"
	Radius	2
	OrbitFrame
	{
		EclipticJ2000	{ Center "Sol/Saturn" }
	}
	EllipticalOrbit
	{
		Epoch	2453167.5  # 2004 Jun 11
		Period	1250.358223
		SemiMajorAxis	22382629.370
		Eccentricity	0.096549
		Inclination	163.348478
		AscendingNode	237.681215
		ArgOfPericenter	141.101769
		MeanAnomaly	224.009820
	}
	UniformRotation
	{
		Period	10
	}
	LunarLambert	0.5
	GeomAlbedo	0.04
	InfoURL	"https://en.wikipedia.org/wiki/Fenrir_(moon)"
}

"Loge:Saturn XLVI:S 2006 S 5" "Sol/Saturn"
{
	Class	"minormoon"
	Mesh	"roughsphere.cms"
	Texture	"asteroid.*"
	SemiAxes	[ 2.5 2 2 ]
	OrbitFrame
	{
		EclipticJ2000	{ Center "Sol/Saturn" }
	}
	EllipticalOrbit
	{
		Epoch	2453167.5  # 2004 Jun 11
		Period	1281.597959
		SemiMajorAxis	22753908.386
		Eccentricity	0.185641
		Inclination	165.701502
		AscendingNode	342.042081
		ArgOfPericenter	19.919864
		MeanAnomaly	72.371302
	}
	UniformRotation
	{
		Period	6.9
	}
	LunarLambert	0.5
	GeomAlbedo	0.04
	InfoURL	"https://en.wikipedia.org/wiki/Loge_(moon)"
}

"S 2004 S 21" "Sol/Saturn"
{
	Class	"minormoon"
	Mesh	"asteroid.cms"
	Texture	"asteroid.*"
	Radius	1.5
	OrbitFrame
	{
		EclipticJ2000	{ Center "Sol/Saturn" }
	}
	EllipticalOrbit
	{
		Epoch	2453167.5  # 2004 Jun 11
		Period	1289.502496
		SemiMajorAxis	22847372.296
		Eccentricity	0.273575
		Inclination	155.310168
		AscendingNode	117.385095
		ArgOfPericenter	200.113058
		MeanAnomaly	247.083313
	}
	UniformRotation
	{
		Period	10
	}
	LunarLambert	0.5
	GeomAlbedo	0.04
	InfoURL	"https://en.wikipedia.org/wiki/S/2004_S_21"
}

"Saturn LXVI:S 2004 S 38" "Sol/Saturn"
{
	Class	"minormoon"
	Mesh	"asteroid.cms"
	Texture	"asteroid.*"
	Radius	2
	OrbitFrame
	{
		EclipticJ2000	{ Center "Sol/Saturn" }
	}
	EllipticalOrbit
	{
		Epoch	2453167.5  # 2004 Jun 11
		Period	1301.827844
		SemiMajorAxis	22992728.146
		Eccentricity	0.433035
		Inclination	154.341081
		AscendingNode	130.864393
		ArgOfPericenter	343.277447
		MeanAnomaly	223.539028
	}
	UniformRotation
	{
		Period	10
	}
	LunarLambert	0.5
	GeomAlbedo	0.04
	InfoURL	"https://en.wikipedia.org/wiki/S/2004_S_38"
}

"S 2004 S 24" "Sol/Saturn"
{
	Class	"minormoon"
	Mesh	"asteroid.cms"
	Texture	"asteroid.*"
	Radius	1.5
	OrbitFrame
	{
		EclipticJ2000	{ Center "Sol/Saturn" }
	}
	EllipticalOrbit
	{
		Epoch	2453167.5  # 2004 Jun 11
		Period	1303.562407
		SemiMajorAxis	23013147.371
		Eccentricity	0.071554
		Inclination	35.550621
		AscendingNode	346.060415
		ArgOfPericenter	13.850201
		MeanAnomaly	171.598367
	}
	UniformRotation
	{
		Period	10
	}
	LunarLambert	0.5
	GeomAlbedo	0.04
	InfoURL	"https://en.wikipedia.org/wiki/S/2004_S_24"
}

"S 2004 S 36" "Sol/Saturn"
{
	Class	"minormoon"
	Mesh	"asteroid.cms"
	Texture	"asteroid.*"
	Radius	1.5
	OrbitFrame
	{
		EclipticJ2000	{ Center "Sol/Saturn" }
	}
	EllipticalOrbit
	{
		Epoch	2453167.5  # 2004 Jun 11
		Period	1308.947602
		SemiMajorAxis	23076484.125
		Eccentricity	0.702417
		Inclination	146.211638
		AscendingNode	212.067162
		ArgOfPericenter	204.039642
		MeanAnomaly	227.534110
	}
	UniformRotation
	{
		Period	10
	}
	LunarLambert	0.5
	GeomAlbedo	0.04
	InfoURL	"https://en.wikipedia.org/wiki/S/2004_S_36"
}

"Ymir:Saturn XIX:S 2000 S 1" "Sol/Saturn"
{
	Class	"minormoon"
	Mesh	"roughsphere.cms"
	Texture	"asteroid.*"
	SemiAxes	[ 10 7 7 ]
	OrbitFrame
	{
		EclipticJ2000	{ Center "Sol/Saturn" }
	}
	EllipticalOrbit
	{
		Epoch	2453167.5  # 2004 Jun 11
		Period	1313.136202
		SemiMajorAxis	23125687.367
		Eccentricity	0.351958
		Inclination	172.340987
		AscendingNode	213.429645
		ArgOfPericenter	34.827277
		MeanAnomaly	321.879876
	}
	UniformRotation
	{
		Period	11.92220
	}
	LunarLambert	0.5
	GeomAlbedo	0.06
	InfoURL	"https://en.wikipedia.org/wiki/Ymir_(moon)"
}

"Surtur:Saturn XLVIII:S 2006 S 7" "Sol/Saturn"
{
	Class	"minormoon"
	Mesh	"asteroid.cms"
	Texture	"asteroid.*"
	Radius	3
	OrbitFrame
	{
		EclipticJ2000	{ Center "Sol/Saturn" }
	}
	EllipticalOrbit
	{
		Epoch	2453167.5  # 2004 Jun 11
		Period	1318.821400
		SemiMajorAxis	23192387.439
		Eccentricity	0.345747
		Inclination	167.321269
		AscendingNode	257.385625
		ArgOfPericenter	324.517477
		MeanAnomaly	234.606823
	}
	UniformRotation
	{
		Period	10
	}
	LunarLambert	0.5
	GeomAlbedo	0.04
	InfoURL	"https://en.wikipedia.org/wiki/Surtur_(moon)"
}

"S 2004 S 39" "Sol/Saturn"
{
	Class	"minormoon"
	Mesh	"asteroid.cms"
	Texture	"asteroid.*"
	Radius	1
	OrbitFrame
	{
		EclipticJ2000	{ Center "Sol/Saturn" }
	}
	EllipticalOrbit
	{
		Epoch	2453167.5  # 2004 Jun 11
		Period	1334.292249
		SemiMajorAxis	23373411.715
		Eccentricity	0.093288
		Inclination	167.135047
		AscendingNode	178.766761
		ArgOfPericenter	194.482341
		MeanAnomaly	203.545985
	}
	UniformRotation
	{
		Period	10
	}
	LunarLambert	0.5
	GeomAlbedo	0.04
	InfoURL	"https://en.wikipedia.org/wiki/S/2004_S_39"
}

"Saturn LXIV:S 2004 S 34" "Sol/Saturn"
{
	Class	"minormoon"
	Mesh	"asteroid.cms"
	Texture	"asteroid.*"
	Radius	1.5
	OrbitFrame
	{
		EclipticJ2000	{ Center "Sol/Saturn" }
	}
	EllipticalOrbit
	{
		Epoch	2453167.5  # 2004 Jun 11
		Period	1345.408828
		SemiMajorAxis	23503054.931
		Eccentricity	0.230633
		Inclination	165.897374
		AscendingNode	297.010322
		ArgOfPericenter	348.790012
		MeanAnomaly	86.107786
	}
	UniformRotation
	{
		Period	10
	}
	LunarLambert	0.5
	GeomAlbedo	0.04
	InfoURL	"https://en.wikipedia.org/wiki/S/2004_S_34"
}

"Saturn LXIII:S 2004 S 33" "Sol/Saturn"
{
	Class	"minormoon"
	Mesh	"asteroid.cms"
	Texture	"asteroid.*"
	Radius	2
	OrbitFrame
	{
		EclipticJ2000	{ Center "Sol/Saturn" }
	}
	EllipticalOrbit
	{
		Epoch	2453167.5  # 2004 Jun 11
		Period	1428.752625
		SemiMajorAxis	24463926.384
		Eccentricity	0.425451
		Inclination	163.257726
		AscendingNode	74.528761
		ArgOfPericenter	300.082043
		MeanAnomaly	199.607275
	}
	UniformRotation
	{
		Period	10
	}
	LunarLambert	0.5
	GeomAlbedo	0.04
	InfoURL	"https://en.wikipedia.org/wiki/S/2004_S_33"
}

"Fornjot:Saturn XLII:S 2004 S 8" "Sol/Saturn"
{
	Class	"minormoon"
	Mesh	"roughsphere.cms"
	Texture	"asteroid.*"
	SemiAxes	[ 2.5 2 2 ]
	OrbitFrame
	{
		EclipticJ2000	{ Center "Sol/Saturn" }
	}
	EllipticalOrbit
	{
		Epoch	2453167.5  # 2004 Jun 11
		Period	1482.026
		SemiMajorAxis	25068329.629
		Eccentricity	0.142
		Inclination	168.186
		AscendingNode	270.795
		ArgOfPericenter	340.97
		MeanAnomaly	235.435
	}
	UniformRotation
	{
		Period	9.5
	}
	LunarLambert	0.5
	GeomAlbedo	0.04
	InfoURL	"https://en.wikipedia.org/wiki/Fornjot_(moon)"
}

